{
  "links": { "self": "https://api.nasa.gov/neo/rest/v1/neo/browse?page=0&size=2" },
  "page": { "size": 2, "total_elements": 4, "total_pages": 2, "number": 0 },
  "near_earth_objects": [
    {
      "id": "2000433",
      "name": "433 Eros (1898 DQ)",
      "name_limited": "Eros",
      "designation": "433",
      "absolute_magnitude_h": 10.31,
      "is_potentially_hazardous_asteroid": false,
      "is_sentry_object": false,
      "estimated_diameter": {
        "kilometers": {
          "estimated_diameter_min": 14.47,
          "estimated_diameter_max": 32.36
        }
      },
      "close_approach_data": [
        {
          "close_approach_date": "2056-01-14",
          "miss_distance": { "astronomical": "0.3491", "kilometers": "52239100.0" },
          "relative_velocity": { "kilometers_per_second": "6.41" },
          "orbiting_body": "Earth"
        }
      ],
      "orbital_data": {
        "epoch_osculation": "2460200.5",
        "semi_major_axis": "1.45799",
        "eccentricity": "0.22265",
        "inclination": "10.8288",
        "ascending_node_longitude": "304.3249",
        "perihelion_argument": "178.8712",
        "mean_anomaly": "41.3082",
        "perihelion_distance": "1.13318",
        "aphelion_distance": "1.78281",
        "orbital_period": "642.9961",
        "minimum_orbit_intersection": "0.148",
        "orbit_class": { "orbit_class_type": "AMO" }
      }
    },
    {
      "id": "2101955",
      "name": "101955 Bennu (1999 RQ36)",
      "name_limited": "Bennu",
      "designation": "101955",
      "absolute_magnitude_h": 20.18,
      "is_potentially_hazardous_asteroid": true,
      "is_sentry_object": true,
      "estimated_diameter": {
        "kilometers": {
          "estimated_diameter_min": 0.4575,
          "estimated_diameter_max": 0.5015
        }
      },
      "close_approach_data": [
        {
          "close_approach_date": "2135-09-25",
          "miss_distance": { "astronomical": "0.0027", "kilometers": "403000.0" },
          "relative_velocity": { "kilometers_per_second": "5.52" },
          "orbiting_body": "Earth"
        }
      ],
      "orbital_data": {
        "epoch_osculation": "2460200.5",
        "semi_major_axis": "1.12592",
        "eccentricity": "0.20374",
        "inclination": "6.0349",
        "ascending_node_longitude": "2.0609",
        "perihelion_argument": "66.2231",
        "mean_anomaly": "101.7039",
        "perihelion_distance": "0.89689",
        "aphelion_distance": "1.35496",
        "orbital_period": "436.6489",
        "minimum_orbit_intersection": "0.00371",
        "orbit_class": { "orbit_class_type": "APO" }
      }
    }
  ]
}
